start=new Date('2022-05-22T00:00:00.000Z').valueOf();
sats=[{"ELEMENT_SET_NO":"999","SITE":"AFETR","MEAN_ANOMALY":"292.0269","MEAN_MOTION_DOT":"0.00002808","CENTER_NAME":"EARTH","MEAN_ELEMENT_THEORY":"SGP4","OBJECT_TYPE":"PAYLOAD","EPOCH":"2022-05-21T19:15:17.687520","RA_OF_ASC_NODE":"247.0877","TLE_LINE2":"2 45412  53.0526 247.0877 0001876  68.0919 292.0269 15.06399390120670","REV_AT_EPOCH":"12067","DECAY_DATE":null,"COUNTRY_CODE":"US","INCLINATION":"53.0526","PERIAPSIS":"545.916","MEAN_MOTION_DDOT":"0.0000000000000","APOAPSIS":"548.515","MEAN_MOTION":"15.06399390","FILE":"3457577","LAUNCH_DATE":"2020-03-18","OBJECT_NAME":"STARLINK-1296","RCS_SIZE":"LARGE","TLE_LINE1":"1 45412U 20019BE  22141.80228805  .00002808  00000-0  20733-3 0  9997","ARG_OF_PERICENTER":"68.0919","BSTAR":"0.00020733000000","EPHEMERIS_TYPE":"0","CLASSIFICATION_TYPE":"U","PERIOD":"95.592","TIME_SYSTEM":"UTC","NORAD_CAT_ID":"45412","OBJECT_ID":"2020-019BE","ECCENTRICITY":"0.00018760","REF_FRAME":"TEME","SEMIMAJOR_AXIS":"6925.350","GP_ID":"204190615"},{"MEAN_MOTION_DOT":"0.00004118","CENTER_NAME":"EARTH","MEAN_ELEMENT_THEORY":"SGP4","ELEMENT_SET_NO":"999","SITE":"AFETR","MEAN_ANOMALY":"295.1481","DECAY_DATE":null,"REV_AT_EPOCH":"12075","INCLINATION":"53.0531","COUNTRY_CODE":"US","MEAN_MOTION_DDOT":"0.0000000000000","PERIAPSIS":"546.218","OBJECT_TYPE":"PAYLOAD","RA_OF_ASC_NODE":"247.5454","EPOCH":"2022-05-21T16:46:40.800576","TLE_LINE2":"2 45413  53.0531 247.5454 0001471  64.9661 295.1481 15.06392298120752","ARG_OF_PERICENTER":"64.9661","EPHEMERIS_TYPE":"0","BSTAR":"0.00029524000000","MEAN_MOTION":"15.06392298","FILE":"3457577","APOAPSIS":"548.256","LAUNCH_DATE":"2020-03-18","OBJECT_NAME":"STARLINK-1298","RCS_SIZE":"LARGE","TLE_LINE1":"1 45413U 20019BF  22141.69908334  .00004118  00000-0  29524-3 0  9990","ECCENTRICITY":"0.00014710","SEMIMAJOR_AXIS":"6925.372","REF_FRAME":"TEME","GP_ID":"204191352","CLASSIFICATION_TYPE":"U","PERIOD":"95.593","TIME_SYSTEM":"UTC","NORAD_CAT_ID":"45413","OBJECT_ID":"2020-019BF"},{"PERIOD":"95.592","CLASSIFICATION_TYPE":"U","NORAD_CAT_ID":"45414","TIME_SYSTEM":"UTC","OBJECT_ID":"2020-019BG","GP_ID":"204189614","ECCENTRICITY":"0.00014370","SEMIMAJOR_AXIS":"6925.363","REF_FRAME":"TEME","OBJECT_NAME":"STARLINK-1309","RCS_SIZE":"LARGE","TLE_LINE1":"1 45414U 20019BG  22141.68433783  .00002269  00000-0  17122-3 0  9997","FILE":"3457577","MEAN_MOTION":"15.06395267","APOAPSIS":"548.223","LAUNCH_DATE":"2020-03-18","ARG_OF_PERICENTER":"68.0743","EPHEMERIS_TYPE":"0","BSTAR":"0.00017122000000","RA_OF_ASC_NODE":"247.6069","EPOCH":"2022-05-21T16:25:26.788512","TLE_LINE2":"2 45414  53.0528 247.6069 0001437  68.0743 292.0399 15.06395267120641","OBJECT_TYPE":"PAYLOAD","MEAN_MOTION_DDOT":"0.0000000000000","PERIAPSIS":"546.233","DECAY_DATE":null,"REV_AT_EPOCH":"12064","INCLINATION":"53.0528","COUNTRY_CODE":"US","SITE":"AFETR","MEAN_ANOMALY":"292.0399","ELEMENT_SET_NO":"999","MEAN_ELEMENT_THEORY":"SGP4","MEAN_MOTION_DOT":"0.00002269","CENTER_NAME":"EARTH"},{"ARG_OF_PERICENTER":"80.7175","EPHEMERIS_TYPE":"0","BSTAR":"0.00035960000000","OBJECT_NAME":"STARLINK-1316","RCS_SIZE":"LARGE","TLE_LINE1":"1 45415U 20019BH  22141.90917988  .00005079  00000-0  35960-3 0  9999","MEAN_MOTION":"15.06403357","FILE":"3457577","APOAPSIS":"548.133","LAUNCH_DATE":"2020-03-18","GP_ID":"204189864","ECCENTRICITY":"0.00013430","SEMIMAJOR_AXIS":"6925.338","REF_FRAME":"TEME","CLASSIFICATION_TYPE":"U","PERIOD":"95.592","NORAD_CAT_ID":"45415","OBJECT_ID":"2020-019BH","TIME_SYSTEM":"UTC","MEAN_ELEMENT_THEORY":"SGP4","MEAN_MOTION_DOT":"0.00005079","CENTER_NAME":"EARTH","SITE":"AFETR","MEAN_ANOMALY":"279.3966","ELEMENT_SET_NO":"999","MEAN_MOTION_DDOT":"0.0000000000000","PERIAPSIS":"546.273","DECAY_DATE":null,"REV_AT_EPOCH":"12071","INCLINATION":"53.0546","COUNTRY_CODE":"US","RA_OF_ASC_NODE":"246.6059","EPOCH":"2022-05-21T21:49:13.141632","TLE_LINE2":"2 45415  53.0546 246.6059 0001343  80.7175 279.3966 15.06403357120712","OBJECT_TYPE":"PAYLOAD"},{"SITE":"AFETR","MEAN_ANOMALY":"291.6919","ELEMENT_SET_NO":"999","MEAN_ELEMENT_THEORY":"SGP4","MEAN_MOTION_DOT":"0.00003964","CENTER_NAME":"EARTH","RA_OF_ASC_NODE":"247.6623","EPOCH":"2022-05-21T16:14:50.376480","TLE_LINE2":"2 45416  53.0529 247.6623 0001242  68.4202 291.6919 15.06388829120669","OBJECT_TYPE":"PAYLOAD","MEAN_MOTION_DDOT":"0.0000000000000","PERIAPSIS":"546.388","DECAY_DATE":null,"REV_AT_EPOCH":"12066","INCLINATION":"53.0529","COUNTRY_CODE":"US","RCS_SIZE":"LARGE","OBJECT_NAME":"STARLINK-1318","TLE_LINE1":"1 45416U 20019BJ  22141.67697195  .00003964  00000-0  28496-3 0  9996","FILE":"3457577","MEAN_MOTION":"15.06388829","APOAPSIS":"548.108","LAUNCH_DATE":"2020-03-18","ARG_OF_PERICENTER":"68.4202","EPHEMERIS_TYPE":"0","BSTAR":"0.00028496000000","PERIOD":"95.593","CLASSIFICATION_TYPE":"U","NORAD_CAT_ID":"45416","TIME_SYSTEM":"UTC","OBJECT_ID":"2020-019BJ","GP_ID":"204191102","ECCENTRICITY":"0.00012420","SEMIMAJOR_AXIS":"6925.383","REF_FRAME":"TEME"},{"ARG_OF_PERICENTER":"81.4621","BSTAR":"0.00007247100000","EPHEMERIS_TYPE":"0","APOAPSIS":"548.336","FILE":"3457188","MEAN_MOTION":"15.06386144","LAUNCH_DATE":"2020-03-18","RCS_SIZE":"LARGE","OBJECT_NAME":"STARLINK-1286","TLE_LINE1":"1 45417U 20019BK  22141.74792235  .00000798  00000-0  72471-4 0  9991","ECCENTRICITY":"0.00015600","REF_FRAME":"TEME","SEMIMAJOR_AXIS":"6925.391","GP_ID":"204161334","PERIOD":"95.593","CLASSIFICATION_TYPE":"U","NORAD_CAT_ID":"45417","OBJECT_ID":"2020-019BK","TIME_SYSTEM":"UTC","MEAN_MOTION_DOT":"0.00000798","CENTER_NAME":"EARTH","MEAN_ELEMENT_THEORY":"SGP4","ELEMENT_SET_NO":"999","SITE":"AFETR","MEAN_ANOMALY":"278.6544","REV_AT_EPOCH":"12053","DECAY_DATE":null,"COUNTRY_CODE":"US","INCLINATION":"53.0532","PERIAPSIS":"546.176","MEAN_MOTION_DDOT":"0.0000000000000","OBJECT_TYPE":"PAYLOAD","EPOCH":"2022-05-21T17:57:00.491040","RA_OF_ASC_NODE":"277.3286","TLE_LINE2":"2 45417  53.0532 277.3286 0001560  81.4621 278.6544 15.06386144120535"},{"PERIAPSIS":"550.025","MEAN_MOTION_DDOT":"0.0000000000000","REV_AT_EPOCH":"11993","DECAY_DATE":null,"COUNTRY_CODE":"US","INCLINATION":"52.9993","EPOCH":"2022-05-21T19:38:50.781120","RA_OF_ASC_NODE":"298.6214","TLE_LINE2":"2 45418  52.9993 298.6214 0000537 148.7874 211.3146 15.05361745119935","OBJECT_TYPE":"PAYLOAD","MEAN_ELEMENT_THEORY":"SGP4","MEAN_MOTION_DOT":"0.00028811","CENTER_NAME":"EARTH","SITE":"AFETR","MEAN_ANOMALY":"211.3146","ELEMENT_SET_NO":"999","GP_ID":"204190101","ECCENTRICITY":"0.00005370","REF_FRAME":"TEME","SEMIMAJOR_AXIS":"6928.532","CLASSIFICATION_TYPE":"U","PERIOD":"95.658","OBJECT_ID":"2020-019BL","NORAD_CAT_ID":"45418","TIME_SYSTEM":"UTC","ARG_OF_PERICENTER":"148.7874","BSTAR":"0.00200010000000","EPHEMERIS_TYPE":"0","RCS_SIZE":"LARGE","OBJECT_NAME":"STARLINK-1299","TLE_LINE1":"1 45418U 20019BL  22141.81864330  .00028811  00000-0  20001-2 0  9992","APOAPSIS":"550.770","MEAN_MOTION":"15.05361745","FILE":"3457577","LAUNCH_DATE":"2020-03-18"},{"PERIOD":"95.592","CLASSIFICATION_TYPE":"U","OBJECT_ID":"2020-019BM","NORAD_CAT_ID":"45419","TIME_SYSTEM":"UTC","GP_ID":"204190351","ECCENTRICITY":"0.00012520","REF_FRAME":"TEME","SEMIMAJOR_AXIS":"6925.335","OBJECT_NAME":"STARLINK-1308","RCS_SIZE":"LARGE","TLE_LINE1":"1 45419U 20019BM  22141.74423529  .00001000  00000-0  86026-4 0  9998","APOAPSIS":"548.067","MEAN_MOTION":"15.06404464","FILE":"3457577","LAUNCH_DATE":"2020-03-18","ARG_OF_PERICENTER":"80.1433","BSTAR":"0.00008602600000","EPHEMERIS_TYPE":"0","EPOCH":"2022-05-21T17:51:41.929056","RA_OF_ASC_NODE":"277.3561","TLE_LINE2":"2 45419  53.0546 277.3561 0001252  80.1433 279.9698 15.06404464120274","OBJECT_TYPE":"PAYLOAD","PERIAPSIS":"546.333","MEAN_MOTION_DDOT":"0.0000000000000","REV_AT_EPOCH":"12027","DECAY_DATE":null,"COUNTRY_CODE":"US","INCLINATION":"53.0546","SITE":"AFETR","MEAN_ANOMALY":"279.9698","ELEMENT_SET_NO":"999","MEAN_ELEMENT_THEORY":"SGP4","MEAN_MOTION_DOT":"0.00001000","CENTER_NAME":"EARTH"},{"MEAN_MOTION_DOT":"0.00000503","CENTER_NAME":"EARTH","MEAN_ELEMENT_THEORY":"SGP4","ELEMENT_SET_NO":"999","SITE":"AFETR","MEAN_ANOMALY":"293.7999","DECAY_DATE":null,"REV_AT_EPOCH":"11592","INCLINATION":"53.0532","COUNTRY_CODE":"US","MEAN_MOTION_DDOT":"0.0000000000000","PERIAPSIS":"546.191","OBJECT_TYPE":"PAYLOAD","RA_OF_ASC_NODE":"216.6006","EPOCH":"2022-05-21T21:53:11.465664","TLE_LINE2":"2 45531  53.0532 216.6006 0001492  66.3147 293.7999 15.06396452115929","ARG_OF_PERICENTER":"66.3147","EPHEMERIS_TYPE":"0","BSTAR":"0.00005265000000","FILE":"3457577","MEAN_MOTION":"15.06396452","APOAPSIS":"548.258","LAUNCH_DATE":"2020-04-22","RCS_SIZE":"LARGE","OBJECT_NAME":"STARLINK-1329","TLE_LINE1":"1 45531U 20025A   22141.91193826  .00000503  00000-0  52650-4 0  9996","ECCENTRICITY":"0.00014920","SEMIMAJOR_AXIS":"6925.359","REF_FRAME":"TEME","GP_ID":"204189876","CLASSIFICATION_TYPE":"U","PERIOD":"95.592","TIME_SYSTEM":"UTC","NORAD_CAT_ID":"45531","OBJECT_ID":"2020-025A"},{"NORAD_CAT_ID":"45532","TIME_SYSTEM":"UTC","OBJECT_ID":"2020-025B","PERIOD":"95.592","CLASSIFICATION_TYPE":"U","REF_FRAME":"TEME","SEMIMAJOR_AXIS":"6925.349","ECCENTRICITY":"0.00015000","GP_ID":"204191114","LAUNCH_DATE":"2020-04-22","APOAPSIS":"548.253","MEAN_MOTION":"15.06399704","FILE":"3457577","TLE_LINE1":"1 45532U 20025B   22141.59127822  .00007840  00000-0  54464-3 0  9999","OBJECT_NAME":"STARLINK-1338","RCS_SIZE":"LARGE","BSTAR":"0.00054464000000","EPHEMERIS_TYPE":"0","ARG_OF_PERICENTER":"63.8424","OBJECT_TYPE":"PAYLOAD","TLE_LINE2":"2 45532  53.0537 218.0389 0001500  63.8424 296.2719 15.06399704115870","EPOCH":"2022-05-21T14:11:26.438208","RA_OF_ASC_NODE":"218.0389","COUNTRY_CODE":"US","INCLINATION":"53.0537","REV_AT_EPOCH":"11587","DECAY_DATE":null,"PERIAPSIS":"546.176","MEAN_MOTION_DDOT":"0.0000000000000","ELEMENT_SET_NO":"999","MEAN_ANOMALY":"296.2719","SITE":"AFETR","CENTER_NAME":"EARTH","MEAN_MOTION_DOT":"0.00007840","MEAN_ELEMENT_THEORY":"SGP4"}];
